ONEWEB-0560             
1 55145U 23004F   23025.94023902  .00004664  00000+0  45924-3 0  9996
2 55145  86.5117 278.8102 0014550 164.4236 195.7443 14.91781719  2495
ONEWEB-0565             
1 55146U 23004G   23025.93760275  .00005507  00000+0  53919-3 0  9997
2 55146  86.5100 278.8075 0014834 168.5226 191.6343 14.92037217  2498
ONEWEB-0567             
1 55147U 23004H   23025.66996290  .00004567  00000+0  44745-3 0  9998
2 55147  86.5090 278.9261 0014745 168.4843 191.6726 14.91970211  2450
ONEWEB-0569             
1 55148U 23004J   23025.94489716  .00004386  00000+0  43668-3 0  9992
2 55148  86.5104 278.8093 0013194 157.9921 202.1876 14.91333787  2495
ONEWEB-0570             
1 55149U 23004K   23025.67578692  .00004797  00000+0  47698-3 0  9998
2 55149  86.5100 278.9277 0013527 159.5718 200.6054 14.91406831  2457
ONEWEB-0571             
1 55150U 23004L   23025.93937287  .00004440  00000+0  43613-3 0  9996
2 55150  86.5129 278.8109 0014707 165.7031 194.4616 14.91865677  2496
ONEWEB-0572             
1 55151U 23004M   23026.07966912 -.00002819  00000+0 -28621-3 0  9992
2 55151  86.5138 278.7575 0013005 154.5176 205.6695 14.91289458  2511
ONEWEB-0573             
1 55152U 23004N   23025.67643819  .00004732  00000+0  47135-3 0  9991
2 55152  86.5114 278.9349 0013404 160.9571 199.2161 14.91334333  2452
ONEWEB-0588             
1 55153U 23004P   23025.68315477  .00004761  00000+0  48230-3 0  9998
2 55153  86.5127 278.9408 0010300 158.1135 202.0534 14.90689095  2454
ONEWEB-0598             
1 55154U 23004Q   23026.41667824 -.00659877  00000+0 -85317-1 0  9998
2 55154  86.5723 278.6407 0011397 151.4343 118.6142 14.83386201  2550
ONEWEB-0599             
1 55155U 23004R   23025.94441375  .00004933  00000+0  49093-3 0  9995
2 55155  86.5115 278.8158 0013273 158.8292 201.3488 14.91381253  2497
ONEWEB-0614             
1 55156U 23004S   23026.00001157 -.00621689  00000+0 -78852-1 0  9992
2 55156  86.5656 278.8183 0011460 153.7526  62.8841 14.84434930  2492
ONEWEB-0616             
1 55157U 23004T   23025.94675572  .00004526  00000+0  45282-3 0  9999
2 55157  86.5098 278.8105 0012498 156.2034 203.9773 14.91155089  2496
ONEWEB-0617             
1 55158U 23004U   23026.58334491 -.00567517  00000+0 -75904-1 0  9991
2 55158  86.5839 278.5889 0009758 153.7171 248.3886 14.82028884  2585
ONEWEB-0618             
1 55159U 23004V   23025.94609316  .00004575  00000+0  45692-3 0  9993
2 55159  86.5113 278.8163 0012655 156.3399 203.8413 14.91226334  2492
ONEWEB-0619             
1 55160U 23004W   23025.94325771  .00004462  00000+0  44244-3 0  9992
2 55160  86.5106 278.8108 0013828 159.0019 201.1780 14.91494209  2493
ONEWEB-0620             
1 55161U 23004X   23026.41667824 -.00687623  00000+0 -89231-1 0  9995
2 55161  86.5714 278.6406 0011102 154.3610 108.8732 14.83338927  2558
ONEWEB-0621             
1 55162U 23004Y   23026.00001157 -.00724850  00000+0 -12422+0 0  9992
2 55162  86.6128 278.9487 0008457 159.6160  43.9517 14.71726811  2491
ONEWEB-0622             
1 55163U 23004Z   23026.00001157 -.00590915  00000+0 -77313-1 0  9998
2 55163  86.5759 278.8360 0010266 157.4041  19.5751 14.83036782  2500
ONEWEB-0623             
1 55164U 23004AA  23025.67137446  .00014194  00000+0  13987-2 0  9998
2 55164  86.5094 278.9273 0014695 166.1930 193.9702 14.91866786  2452
ONEWEB-0624             
1 55165U 23004AB  23025.93793190  .00004454  00000+0  43597-3 0  9991
2 55165  86.5122 278.8091 0014663 167.8644 192.2941 14.92003951  2496
ONEWEB-0625             
1 55166U 23004AC  23025.67761116  .00004456  00000+0  44503-3 0  9996
2 55166  86.5103 278.9292 0012803 157.6707 202.5080 14.91224904  2458
ONEWEB-0626             
1 55167U 23004AD  23025.93763515  .00004763  00000+0  46604-3 0  9996
2 55167  86.5091 278.8069 0014869 168.6130 191.5438 14.92030840  2495
ONEWEB-0627             
1 55168U 23004AE  23025.93919474  .00004423  00000+0  43424-3 0  9994
2 55168  86.5095 278.8072 0014721 166.1323 194.0312 14.91880938  2497
ONEWEB-0628             
1 55169U 23004AF  23025.93861822  .00004826  00000+0  47341-3 0  9997
2 55169  86.5125 278.8103 0014738 167.2580 192.9024 14.91934758  2499
ONEWEB-0629             
1 55170U 23004AG  23025.93699802  .00004830  00000+0  47194-3 0  9997
2 55170  86.5104 278.8074 0015051 169.8259 190.3277 14.92088500  2493
ONEWEB-0631             
1 55171U 23004AH  23025.93979019  .00004564  00000+0  44880-3 0  9992
2 55171  86.5119 278.8102 0014575 164.9606 195.2059 14.91825675  2497
ONEWEB-0709             
1 55172U 23004AJ  23026.00001157 -.00610334  00000+0 -76224-1 0  9996
2 55172  86.5570 278.8092 0010865 155.6778  62.9542 14.85028369  2497
ONEWEB-0710             
1 55173U 23004AK  23025.94065279  .00004578  00000+0  45111-3 0  9992
2 55173  86.5109 278.8099 0014422 163.7900 196.3792 14.91744412  2493
ONEWEB-0711             
1 55174U 23004AL  23026.58334491 -.00603503  00000+0 -80914-1 0  9992
2 55174  86.5799 278.5778 0009948 155.0509 253.9691 14.82081098  2588
ONEWEB-0713             
1 55175U 23004AM  23026.00001157 -.00625088  00000+0 -82851-1 0  9994
2 55175  86.5759 278.8337 0009851 151.8260  14.2246 14.82651651  2504
ONEWEB-0715             
1 55176U 23004AN  23026.41667824 -.00637110  00000+0 -84150-1 0  9992
2 55176  86.5786 278.6555 0010072 154.5893  94.6963 14.82845615  2552
ONEWEB-0716             
1 55177U 23004AP  23025.67535200  .00004232  00000+0  42005-3 0  9998
2 55177  86.5116 278.9339 0013594 159.8733 200.3033 14.91444535  2455
ONEWEB-0717             
1 55178U 23004AQ  23026.41667824 -.00022586  00000+0 -23071-2 0  9995
2 55178  86.5082 278.6058 0010782 155.3736 185.3264 14.90814149  2553
ONEWEB-0719             
1 55179U 23004AR  23025.94687691  .00004577  00000+0  45810-3 0  9991
2 55179  86.5103 278.8111 0012421 156.2303 203.9501 14.91148749  2493
SJ-23 AKM               
1 55180U 23002C   23025.30420250 -.00000297  00000+0  00000+0 0  9991
2 55180   0.5211  95.1491 0001742 279.1480 345.6764  0.99360287   104
SS-1                    
1 55181U 98067UY  23026.04861902  .00090229  00000+0  13758-2 0  9990
2 55181  51.6412 312.3107 0003913 240.2893 119.7708 15.53700066  3067
HSKSAT                  
1 55182U 98067UZ  23026.05107149  .00060714  00000+0  95596-3 0  9995
2 55182  51.6416 312.3272 0003333 233.0692 126.9993 15.52988524  3071
OPTIMAL-1               
1 55183U 98067VA  23026.05301020  .00052999  00000+0  84606-3 0  9996
2 55183  51.6419 312.3406 0004083 339.9032  20.1797 15.52661426  3077
APSTAR 6E               
1 55239U 23005A   23023.24244036 -.00000004  00000+0  00000+0 0  9992
2 55239  33.3212  13.0973 3305985 140.1267 317.2134  8.23856059  1308
CZ-2D R/B               
1 55240U 23005B   23025.13387347  .00002262 -71514-5  00000+0 0  9999
2 55240  28.5070 294.2454 0161031 254.0830 253.1331 15.89554322  1962
2023-006A               
1 55242U 23006A   23026.26319442  .00023033  00000+0  11423-2 0  9996
2 55242  43.2017 134.4602 0009542 358.1775  92.8319 15.17283228  1971
2023-006B               
1 55243U 23006B   23026.04703704  .00011426  00000+0  57825-3 0  9991
2 55243  43.2023 135.6743 0009053 355.6147 346.7889 15.17001954  1933
2023-006C               
1 55244U 23006C   23026.32574358  .00010671  00000+0  55158-3 0  9992
2 55244  43.2011 134.2101 0006122 342.2531  53.2668 15.16328306  1934
2023-006D               
1 55245U 23006D   23026.26649873  .00034491  00000+0  17124-2 0  9997
2 55245  43.2005 134.4843 0007354 349.3723 102.4592 15.17085941  1931
2023-007A               
1 55248U 23007A   23026.28913628  .00018860  00000+0  76965-3 0  9996
2 55248  97.3772 100.5702 0008772 198.6079 246.7569 15.24429196  1700
2023-007B               
1 55249U 23007B   23026.34830446  .00018356  00000+0  74094-3 0  9991
2 55249  97.3776 100.6364 0008606 207.1113 217.2231 15.24803840  1702
2023-007C               
1 55250U 23007C   23026.34646072  .00029187  00000+0  11614-2 0  9995
2 55250  97.3756 100.6360 0007591 214.5021 211.2612 15.25195517  1703
2023-007D               
1 55251U 23007D   23026.28404911  .00028638  00000+0  11377-2 0  9999
2 55251  97.3819 100.5841 0008048 217.1949 228.6916 15.25248642  1698
2023-007E               
1 55252U 23007E   23026.21821382 -.00456169  00000+0 -19484-1 0  9990
2 55252  97.3711 100.5069 0008252 219.1861 225.0605 15.24874971  1688
2023-007F               
1 55253U 23007F   23026.28337141  .00018953  00000+0  75476-3 0  9991
2 55253  97.3760 100.5768 0008002 221.1795 225.5636 15.25254802  1697
2023-007G               
1 55254U 23007G   23026.34749017  .00021098  00000+0  83725-3 0  9998
2 55254  97.3799 100.6463 0007801 223.5859 217.8918 15.25351666  1701
2023-007H               
1 55255U 23007H   23026.27967174  .00036721  00000+0  14260-2 0  9993
2 55255  97.3730 100.5780 0008479 234.7956 211.6361 15.25951609  1697
2023-007J               
1 55256U 23007J   23026.28008381  .00027131  00000+0  10609-2 0  9999
2 55256  97.3761 100.5820 0007989 236.1730 210.2815 15.25789536  1695
2023-007K               
1 55257U 23007K   23026.34197013  .00013923  00000+0  54987-3 0  9990
2 55257  97.3760 100.6406 0007605 237.9687 186.5440 15.25603065  1704
2023-007L               
1 55258U 23007L   23026.34104898  .00017507  00000+0  68697-3 0  9995
2 55258  97.3771 100.6442 0007543 240.1420 184.2932 15.25769221  1707
2023-007M               
1 55259U 23007M   23026.33892940  .00015818  00000+0  61606-3 0  9993
2 55259  97.3729 100.6393 0007732 249.8499 174.6366 15.26039093  1700
2023-007N               
1 55260U 23007N   23026.33393499  .00022821  00000+0  86663-3 0  9992
2 55260  97.3726 100.6470 0007998 270.5186 154.0301 15.26800884  1708
2023-007P               
1 55261U 23007P   23026.33316191  .00019365  00000+0  73461-3 0  9998
2 55261  97.3728 100.6476 0008685 272.2043 152.3815 15.26864817  1709
